AISTECHSAT 2            
1 43768U 18099L   26193.57407509  .00002788  00000+0  14984-3 0  9996
2 43768  97.4282 241.0538 0004352 188.9023 171.2134 15.15698033416124
FOX-1CLIFF (AO-95)      
1 43770U 18099N   26193.70025572  .00006951  00000+0  26300-3 0  9991
2 43770  97.4379 253.8593 0007082 250.2721 109.7754 15.27240564417116
RANGE-A                 
1 43773U 18099R   26193.63200281  .00002177  00000+0  12479-3 0  9996
2 43773  97.3955 235.4677 0008549 255.6518 104.3765 15.13595412416346
SNUSAT-2                
1 43782U 18099AA  26193.57895174  .00004801  00000+0  21177-3 0  9991
2 43782  97.4051 246.5761 0009931 197.0195 163.0710 15.22214772416896
SNUGLITE                
1 43784U 18099AC  26193.69279971  .00007384  00000+0  27527-3 0  9991
2 43784  97.3864 247.7284 0003383 165.8241 194.3094 15.27722984417215
ITASAT                  
1 43786U 18099AE  26193.70925475  .00003672  00000+0  17667-3 0  9992
2 43786  97.4019 244.7142 0010781 260.4139  99.5878 15.19362966416786
EAGLET-I                
1 43790U 18099AJ  26193.58069118  .00001913  00000+0  11153-3 0  9996
2 43790  97.4222 242.5773 0009508 254.7473 105.2707 15.13122395416178
ESEO                    
1 43792U 18099AL  26193.65699149  .00001355  00000+0  10133-3 0  9996
2 43792  97.3953 229.9533 0010828 243.6477 116.3638 15.04315129415636
THEA                    
1 43796U 18099AQ  26193.74863506  .00013755  00000+0  39563-3 0  9995
2 43796  97.4438 263.7026 0007785 182.3307 177.7901 15.35882517416618
ASTROCAST 0.1           
1 43798U 18099AS  26193.75482554  .00031183  00000+0  53084-3 0  9997
2 43798  97.4387 273.0795 0005730 140.8651 219.3017 15.51333494418390
JY1SAT (JO-97)          
1 43803U 18099AX  26192.68722269  .00009972  00000+0  30109-3 0  9999
2 43803  97.4124 255.6172 0006517 168.9842 191.1545 15.34443331417382
SUOMI-100               
1 43804U 18099AY  26193.73443014  .00007931  00000+0  28390-3 0  9997
2 43804  97.4181 254.0402 0010278 180.4241 179.6992 15.28995113417320
CENTAURI-1              
1 43809U 18099BD  26193.67579019  .00003124  00000+0  16300-3 0  9998
2 43809  97.4213 244.8497 0012789 234.4410 125.5631 15.16610155416369
GLOBAL-2                
1 43812U 18099BG  26193.54257933  .00001252  00000+0  83393-4 0  9993
2 43812  97.3547 229.0016 0007550  74.5757 285.6306 15.08816851415730
SEAHAWK-1               
1 43820U 18099BQ  26193.69414986  .00005467  00000+0  23384-3 0  9996
2 43820  97.3947 245.7950 0007617 207.6790 152.4042 15.23213492416418
SAUDISAT 5A             
1 43831U 18102A   26193.89829203  .00003456  00000+0  12784-3 0  9995
2 43831  97.3059 254.9855 0010625  50.9993 309.2191 15.28307094419605
SAUDISAT 5B             
1 43833U 18102C   26193.84746419  .00003298  00000+0  12122-3 0  9999
2 43833  97.3167 258.0519 0011407  52.5887 307.6389 15.28550776419718
ISAT                    
1 43879U 18111D   26193.75672330  .00104276  00000+0  84399-3 0  9992
2 43879  97.5864 131.0427 0007362 144.6436 215.5315 15.70444929415171
UWE-4                   
1 43880U 18111E   26193.76628622  .00027634  00000+0  53442-3 0  9997
2 43880  97.5844 123.3656 0005747 204.5147 155.5830 15.47716069414736
D-STAR ONE (SPARROW)    
1 43881U 18111F   26193.79922753  .00197525  00000+0  86714-3 0  9998
2 43881  97.6090 137.2518 0007117 143.2654 216.9104 15.84047501415418
JILIN-1 09              
1 43943U 19005B   26193.84376104  .00002672  00000+0  12465-3 0  9999
2 43943  97.4747 288.5910 0002530  41.2969 318.8457 15.20729583413047
JILIN-1 10              
1 43946U 19005E   26193.83354367  .00003612  00000+0  14329-3 0  9994
2 43946  97.4798 292.6431 0008341 177.7343 182.3934 15.25991692413228
EGYPTSAT-A (MISRSAT-A)  
1 44047U 19008A   26193.83246257  .00000351  00000+0  63382-4 0  9999
2 44047  98.0189 258.2489 0001721  94.3832 265.7572 14.72335079397019
EMISAT                  
1 44078U 19018A   26193.85794933 -.00000108  00000+0 -18777-4 0  9995
2 44078  98.4642 252.5152 0019238 137.8696 222.3977 14.43647818383768
JILIN-1 GAOFEN 3A       
1 44312U 19032C   26193.50020398  .00005515  00000+0  17833-3 0  9997
2 44312  44.9729 217.5664 0004691  84.2828 275.8592 15.33155930391729
WT 1B                   
1 44316U 19032G   26193.70561516  .00006124  00000+0  23256-3 0  9998
2 44316  44.9739 281.5975 0008587  20.9901 339.1333 15.27694458390987
PROX-1                  
1 44339U 19036A   26193.62375530  .00007060  00000+0  66490-3 0  9994
2 44339  23.9957 304.2578 0005764 339.2511  20.7755 14.91213865377277
NPSAT1                  
1 44340U 19036B   26193.83072231  .00003219  00000+0  43373-3 0  9998
2 44340  23.9994  50.7114 0007522 140.0895 220.0155 14.74809647376285
FORMOSAT 7-3            
1 44343U 19036E   26193.56034507  .00002776  00000+0  14580-3 0  9990
2 44343  24.0004   3.8842 0000410 187.8054 172.2443 15.09982287387083
