OBJECT_NAME,OBJECT_ID,EPOCH,MEAN_MOTION,ECCENTRICITY,INCLINATION,RA_OF_ASC_NODE,ARG_OF_PERICENTER,MEAN_ANOMALY,EPHEMERIS_TYPE,CLASSIFICATION_TYPE,NORAD_CAT_ID,ELEMENT_SET_NO,REV_AT_EPOCH,BSTAR,MEAN_MOTION_DOT,MEAN_MOTION_DDOT
AISTECHSAT 2,2018-099L,2026-07-12T13:46:40.087776,15.15698033,.0004352,97.4282,241.0538,188.9023,171.2134,0,U,43768,999,41612,.14984E-3,.2788E-4,0
FOX-1CLIFF (AO-95),2018-099N,2026-07-12T16:48:22.094208,15.27240564,.0007082,97.4379,253.8593,250.2721,109.7754,0,U,43770,999,41711,.263E-3,.6951E-4,0
RANGE-A,2018-099R,2026-07-12T15:10:05.042784,15.13595412,.0008549,97.3955,235.4677,255.6518,104.3765,0,U,43773,999,41634,.12479E-3,.2177E-4,0
SNUSAT-2,2018-099AA,2026-07-12T13:53:41.430336,15.22214772,.0009931,97.4051,246.5761,197.0195,163.0710,0,U,43782,999,41689,.21177E-3,.4801E-4,0
SNUGLITE,2018-099AC,2026-07-12T16:37:37.894944,15.27722984,.0003383,97.3864,247.7284,165.8241,194.3094,0,U,43784,999,41721,.27527E-3,.7384E-4,0
ITASAT,2018-099AE,2026-07-12T17:01:19.610400,15.19362966,.0010781,97.4019,244.7142,260.4139,99.5878,0,U,43786,999,41678,.17667E-3,.3672E-4,0
EAGLET-I,2018-099AJ,2026-07-12T13:56:11.717952,15.13122395,.0009508,97.4222,242.5773,254.7473,105.2707,0,U,43790,999,41617,.11153E-3,.1913E-4,0
ESEO,2018-099AL,2026-07-12T15:46:04.064736,15.04315129,.0010828,97.3953,229.9533,243.6477,116.3638,0,U,43792,999,41563,.10133E-3,.1355E-4,0
THEA,2018-099AQ,2026-07-12T17:58:02.069184,15.35882517,.0007785,97.4438,263.7026,182.3307,177.7901,0,U,43796,999,41661,.39563E-3,.13755E-3,0
ASTROCAST 0.1,2018-099AS,2026-07-12T18:06:56.926656,15.51333494,.000573,97.4387,273.0795,140.8651,219.3017,0,U,43798,999,41839,.53084E-3,.31183E-3,0
JY1SAT (JO-97),2018-099AX,2026-07-11T16:29:36.040416,15.34443331,.00065178,97.4124,255.6172,168.9842,191.1545,0,U,43803,999,41738,.301087E-3,.9972E-4,0
SUOMI-100,2018-099AY,2026-07-12T17:37:34.764096,15.28995113,.0010278,97.4181,254.0402,180.4241,179.6992,0,U,43804,999,41732,.2839E-3,.7931E-4,0
CENTAURI-1,2018-099BD,2026-07-12T16:13:08.272416,15.16610155,.0012789,97.4213,244.8497,234.4410,125.5631,0,U,43809,999,41636,.163E-3,.3124E-4,0
GLOBAL-2,2018-099BG,2026-07-12T13:01:18.854112,15.08816851,.00075507,97.3547,229.0016,74.5757,285.6306,0,U,43812,999,41573,.83393152E-4,.1252E-4,0
SEAHAWK-1,2018-099BQ,2026-07-12T16:39:34.547904,15.23213492,.0007617,97.3947,245.7950,207.6790,152.4042,0,U,43820,999,41641,.23384E-3,.5467E-4,0
SAUDISAT 5A,2018-102A,2026-07-12T21:33:32.431392,15.28307094,.0010625,97.3059,254.9855,50.9993,309.2191,0,U,43831,999,41960,.12784E-3,.3456E-4,0
SAUDISAT 5B,2018-102C,2026-07-12T20:20:20.906016,15.28550776,.0011407,97.3167,258.0519,52.5887,307.6389,0,U,43833,999,41971,.12122E-3,.3298E-4,0
ISAT,2018-111D,2026-07-12T18:09:40.893120,15.70444929,.0007362,97.5864,131.0427,144.6436,215.5315,0,U,43879,999,41517,.84399E-3,.104276E-2,0
UWE-4,2018-111E,2026-07-12T18:23:27.129408,15.47716069,.0005747,97.5844,123.3656,204.5147,155.5830,0,U,43880,999,41473,.53442E-3,.27634E-3,0
D-STAR ONE (SPARROW),2018-111F,2026-07-12T19:10:53.258592,15.84047501,.0007117,97.6090,137.2518,143.2654,216.9104,0,U,43881,999,41541,.86714E-3,.197525E-2,0
JILIN-1 09,2019-005B,2026-07-12T20:15:00.953856,15.20729583,.000253,97.4747,288.5910,41.2969,318.8457,0,U,43943,999,41304,.12465E-3,.2672E-4,0
JILIN-1 10,2019-005E,2026-07-12T20:00:18.173088,15.25991692,.0008341,97.4798,292.6431,177.7343,182.3934,0,U,43946,999,41322,.14329E-3,.3612E-4,0
EGYPTSAT-A (MISRSAT-A),2019-008A,2026-07-12T19:58:44.766048,14.72335079,.0001721,98.0189,258.2489,94.3832,265.7572,0,U,44047,999,39701,.63382E-4,.351E-5,0
EMISAT,2019-018A,2026-07-12T20:35:26.822112,14.43647818,.0019238,98.4642,252.5152,137.8696,222.3977,0,U,44078,999,38376,-.18777E-4,-.108E-5,0
JILIN-1 GAOFEN 3A,2019-032C,2026-07-12T12:00:17.623872,15.33155930,.00046919,44.9729,217.5664,84.2828,275.8592,0,U,44312,999,39172,.17832924E-3,.5515E-4,0
WT 1B,2019-032G,2026-07-12T16:56:05.149824,15.27694458,.0008587,44.9739,281.5975,20.9901,339.1333,0,U,44316,999,39098,.23256E-3,.6124E-4,0
PROX-1,2019-036A,2026-07-12T14:58:12.457920,14.91213865,.0005764,23.9957,304.2578,339.2511,20.7755,0,U,44339,999,37727,.6649E-3,.706E-4,0
NPSAT1,2019-036B,2026-07-12T19:56:14.407584,14.74809647,.0007522,23.9994,50.7114,140.0895,220.0155,0,U,44340,999,37628,.43373E-3,.3219E-4,0
FORMOSAT 7-3,2019-036E,2026-07-12T13:26:53.814048,15.09982287,.00004107,24.0004,3.8842,187.8054,172.2443,0,U,44343,999,38708,.14580373E-3,.2776E-4,0
